ICEYE-X2                
1 43800U 18099AU  26188.84205647  .00002556  00000+0  12901-3 0  9996
2 43800  97.4342 242.3212 0008991 223.2931 136.7598 15.17978510415958
ICEYE-X4                
1 44390U 19038D   26188.87115626  .00007453  00000+0  26083-3 0  9992
2 44390  97.8753 223.0049 0012156 225.0268 134.9986 15.29769507384962
ICEYE-X7                
1 46496U 20068L   26188.85026819  .00007862  00000+0  25718-3 0  9997
2 46496  97.7502 156.3226 0005386 245.9499 114.1178 15.31988741317955
ICEYE-X6                
1 46497U 20068M   26188.87439507  .00002660  00000+0  19404-3 0  9998
2 46497  98.0975 183.5359 0007779  30.8521 329.3160 15.04635640316348
ICEYE-X21               
1 55049U 23001AS  26175.21618542  .01585954  23968-5  60214-3 0  9995
2 55049  97.3001 262.6152 0012377 285.9702  74.0225 16.24069885194757
ICEYE-X25               
1 56963U 23084AH  26188.88806407  .00037062  00000+0  41988-3 0  9992
2 56963  97.5904 336.5938 0003900 208.0295 152.0753 15.62314875171206
ICEYE-X31               
1 58288U 23174AJ  26188.87161847  .00011042  00000+0  32732-3 0  9992
2 58288  97.3770 264.6145 0001973 209.4371 150.6761 15.35011231147921
ICEYE-X34               
1 58294U 23174AQ  26188.80228800  .00117261  00000+0  98580-3 0  9998
2 58294  97.3862 281.0513 0001453 184.9999 175.1249 15.69515789148971
ICEYE-X35               
1 58302U 23174AY  26188.85403808  .00035699  00000+0  53987-3 0  9992
2 58302  97.3781 274.0247 0008413 130.6521 229.5466 15.54579028148558
ICEYE-X38               
1 59100U 24043C   26188.88474978  .00003685  00000+0  21238-3 0  9998
2 59100  97.8427 333.2060 0002950  40.8536 319.2915 15.13048655114805
ICEYE-X37               
1 59102U 24043E   26188.70885912  .00002612  00000+0  18209-3 0  9998
2 59102  97.8339 326.0363 0013707 302.4159  57.5741 15.06262728128170
ICEYE-X36               
1 59103U 24043F   26188.70091124  .00002207  00000+0  15099-3 0  9997
2 59103  97.8393 327.1418 0004587 242.2744 117.8017 15.07198049128239
ICEYE-X43               
1 60539U 24149BZ  26188.77919926  .00001926  00000+0  16056-3 0  9996
2 60539  97.6813 265.4679 0007094  19.1548 340.9941 14.99768892103205
ICEYE-X39               
1 60546U 24149CG  26188.75710777  .00002803  00000+0  22985-3 0  9998
2 60546  97.6765 265.5018 0006969  66.3508 293.8446 15.00036331103202
ICEYE-X33               
1 60548U 24149CJ  26188.70301073  .00003306  00000+0  26424-3 0  9991
2 60548  97.7335 267.7382 0001935  75.9542 284.1897 15.00923697103289
