{"fetched_at":"2026-07-08T07:03:59.482Z","source":"https://celestrak.org/NORAD/elements/gp.php?NAME=ICEYE&FORMAT=JSON","constellation":"iceye","records":[{"OBJECT_NAME":"ICEYE-X2","OBJECT_ID":"2018-099AU","EPOCH":"2026-07-07T20:12:33.679008","CLASSIFICATION_TYPE":"U","MEAN_MOTION":15.1797851,"ECCENTRICITY":0.0008991,"INCLINATION":97.4342,"RA_OF_ASC_NODE":242.3212,"ARG_OF_PERICENTER":223.2931,"MEAN_ANOMALY":136.7598,"EPHEMERIS_TYPE":0,"NORAD_CAT_ID":43800,"ELEMENT_SET_NO":999,"REV_AT_EPOCH":41595,"BSTAR":0.00012901,"MEAN_MOTION_DOT":0.00002556,"MEAN_MOTION_DDOT":0},{"OBJECT_NAME":"ICEYE-X4","OBJECT_ID":"2019-038D","EPOCH":"2026-07-07T20:54:27.900864","CLASSIFICATION_TYPE":"U","MEAN_MOTION":15.29769507,"ECCENTRICITY":0.0012156,"INCLINATION":97.8753,"RA_OF_ASC_NODE":223.0049,"ARG_OF_PERICENTER":225.0268,"MEAN_ANOMALY":134.9986,"EPHEMERIS_TYPE":0,"NORAD_CAT_ID":44390,"ELEMENT_SET_NO":999,"REV_AT_EPOCH":38496,"BSTAR":0.00026083,"MEAN_MOTION_DOT":0.00007453,"MEAN_MOTION_DDOT":0},{"OBJECT_NAME":"ICEYE-X7","OBJECT_ID":"2020-068L","EPOCH":"2026-07-07T20:24:23.171616","CLASSIFICATION_TYPE":"U","MEAN_MOTION":15.31988741,"ECCENTRICITY":0.0005386,"INCLINATION":97.7502,"RA_OF_ASC_NODE":156.3226,"ARG_OF_PERICENTER":245.9499,"MEAN_ANOMALY":114.1178,"EPHEMERIS_TYPE":0,"NORAD_CAT_ID":46496,"ELEMENT_SET_NO":999,"REV_AT_EPOCH":31795,"BSTAR":0.00025718,"MEAN_MOTION_DOT":0.00007862,"MEAN_MOTION_DDOT":0},{"OBJECT_NAME":"ICEYE-X6","OBJECT_ID":"2020-068M","EPOCH":"2026-07-07T20:59:07.734048","CLASSIFICATION_TYPE":"U","MEAN_MOTION":15.0463564,"ECCENTRICITY":0.0007779,"INCLINATION":98.0975,"RA_OF_ASC_NODE":183.5359,"ARG_OF_PERICENTER":30.8521,"MEAN_ANOMALY":329.316,"EPHEMERIS_TYPE":0,"NORAD_CAT_ID":46497,"ELEMENT_SET_NO":999,"REV_AT_EPOCH":31634,"BSTAR":0.00019404,"MEAN_MOTION_DOT":0.0000266,"MEAN_MOTION_DDOT":0},{"OBJECT_NAME":"ICEYE-X21","OBJECT_ID":"2023-001AS","EPOCH":"2026-06-24T05:11:18.420288","CLASSIFICATION_TYPE":"U","MEAN_MOTION":16.24069885,"ECCENTRICITY":0.00123774,"INCLINATION":97.3001,"RA_OF_ASC_NODE":262.6152,"ARG_OF_PERICENTER":285.9702,"MEAN_ANOMALY":74.0225,"EPHEMERIS_TYPE":0,"NORAD_CAT_ID":55049,"ELEMENT_SET_NO":999,"REV_AT_EPOCH":19475,"BSTAR":0.000602142,"MEAN_MOTION_DOT":0.01585954,"MEAN_MOTION_DDOT":0.000002396838},{"OBJECT_NAME":"ICEYE-X25","OBJECT_ID":"2023-084AH","EPOCH":"2026-07-07T21:18:48.735648","CLASSIFICATION_TYPE":"U","MEAN_MOTION":15.62314875,"ECCENTRICITY":0.00039,"INCLINATION":97.5904,"RA_OF_ASC_NODE":336.5938,"ARG_OF_PERICENTER":208.0295,"MEAN_ANOMALY":152.0753,"EPHEMERIS_TYPE":0,"NORAD_CAT_ID":56963,"ELEMENT_SET_NO":999,"REV_AT_EPOCH":17120,"BSTAR":0.00041988,"MEAN_MOTION_DOT":0.00037062,"MEAN_MOTION_DDOT":0},{"OBJECT_NAME":"ICEYE-X31","OBJECT_ID":"2023-174AJ","EPOCH":"2026-07-07T20:55:07.835808","CLASSIFICATION_TYPE":"U","MEAN_MOTION":15.35011231,"ECCENTRICITY":0.0001973,"INCLINATION":97.377,"RA_OF_ASC_NODE":264.6145,"ARG_OF_PERICENTER":209.4371,"MEAN_ANOMALY":150.6761,"EPHEMERIS_TYPE":0,"NORAD_CAT_ID":58288,"ELEMENT_SET_NO":999,"REV_AT_EPOCH":14792,"BSTAR":0.00032732,"MEAN_MOTION_DOT":0.00011042,"MEAN_MOTION_DDOT":0},{"OBJECT_NAME":"ICEYE-X34","OBJECT_ID":"2023-174AQ","EPOCH":"2026-07-07T19:15:17.683200","CLASSIFICATION_TYPE":"U","MEAN_MOTION":15.69515789,"ECCENTRICITY":0.0001453,"INCLINATION":97.3862,"RA_OF_ASC_NODE":281.0513,"ARG_OF_PERICENTER":184.9999,"MEAN_ANOMALY":175.1249,"EPHEMERIS_TYPE":0,"NORAD_CAT_ID":58294,"ELEMENT_SET_NO":999,"REV_AT_EPOCH":14897,"BSTAR":0.0009858,"MEAN_MOTION_DOT":0.00117261,"MEAN_MOTION_DDOT":0},{"OBJECT_NAME":"ICEYE-X35","OBJECT_ID":"2023-174AY","EPOCH":"2026-07-07T20:29:48.890112","CLASSIFICATION_TYPE":"U","MEAN_MOTION":15.54579028,"ECCENTRICITY":0.0008413,"INCLINATION":97.3781,"RA_OF_ASC_NODE":274.0247,"ARG_OF_PERICENTER":130.6521,"MEAN_ANOMALY":229.5466,"EPHEMERIS_TYPE":0,"NORAD_CAT_ID":58302,"ELEMENT_SET_NO":999,"REV_AT_EPOCH":14855,"BSTAR":0.00053987,"MEAN_MOTION_DOT":0.00035699,"MEAN_MOTION_DDOT":0},{"OBJECT_NAME":"ICEYE-X38","OBJECT_ID":"2024-043C","EPOCH":"2026-07-07T21:14:02.380992","CLASSIFICATION_TYPE":"U","MEAN_MOTION":15.13048655,"ECCENTRICITY":0.000295,"INCLINATION":97.8427,"RA_OF_ASC_NODE":333.206,"ARG_OF_PERICENTER":40.8536,"MEAN_ANOMALY":319.2915,"EPHEMERIS_TYPE":0,"NORAD_CAT_ID":59100,"ELEMENT_SET_NO":999,"REV_AT_EPOCH":11480,"BSTAR":0.00021238,"MEAN_MOTION_DOT":0.00003685,"MEAN_MOTION_DDOT":0},{"OBJECT_NAME":"ICEYE-X37","OBJECT_ID":"2024-043E","EPOCH":"2026-07-07T17:00:45.427968","CLASSIFICATION_TYPE":"U","MEAN_MOTION":15.06262728,"ECCENTRICITY":0.0013707,"INCLINATION":97.8339,"RA_OF_ASC_NODE":326.0363,"ARG_OF_PERICENTER":302.4159,"MEAN_ANOMALY":57.5741,"EPHEMERIS_TYPE":0,"NORAD_CAT_ID":59102,"ELEMENT_SET_NO":999,"REV_AT_EPOCH":12817,"BSTAR":0.00018209,"MEAN_MOTION_DOT":0.00002612,"MEAN_MOTION_DDOT":0},{"OBJECT_NAME":"ICEYE-X36","OBJECT_ID":"2024-043F","EPOCH":"2026-07-07T16:49:18.731136","CLASSIFICATION_TYPE":"U","MEAN_MOTION":15.07198049,"ECCENTRICITY":0.0004587,"INCLINATION":97.8393,"RA_OF_ASC_NODE":327.1418,"ARG_OF_PERICENTER":242.2744,"MEAN_ANOMALY":117.8017,"EPHEMERIS_TYPE":0,"NORAD_CAT_ID":59103,"ELEMENT_SET_NO":999,"REV_AT_EPOCH":12823,"BSTAR":0.00015099,"MEAN_MOTION_DOT":0.00002207,"MEAN_MOTION_DDOT":0},{"OBJECT_NAME":"ICEYE-X43","OBJECT_ID":"2024-149BZ","EPOCH":"2026-07-07T18:42:02.816064","CLASSIFICATION_TYPE":"U","MEAN_MOTION":14.99768892,"ECCENTRICITY":0.0007094,"INCLINATION":97.6813,"RA_OF_ASC_NODE":265.4679,"ARG_OF_PERICENTER":19.1548,"MEAN_ANOMALY":340.9941,"EPHEMERIS_TYPE":0,"NORAD_CAT_ID":60539,"ELEMENT_SET_NO":999,"REV_AT_EPOCH":10320,"BSTAR":0.00016056,"MEAN_MOTION_DOT":0.00001926,"MEAN_MOTION_DDOT":0},{"OBJECT_NAME":"ICEYE-X39","OBJECT_ID":"2024-149CG","EPOCH":"2026-07-07T18:10:14.111328","CLASSIFICATION_TYPE":"U","MEAN_MOTION":15.00036331,"ECCENTRICITY":0.0006969,"INCLINATION":97.6765,"RA_OF_ASC_NODE":265.5018,"ARG_OF_PERICENTER":66.3508,"MEAN_ANOMALY":293.8446,"EPHEMERIS_TYPE":0,"NORAD_CAT_ID":60546,"ELEMENT_SET_NO":999,"REV_AT_EPOCH":10320,"BSTAR":0.00022985,"MEAN_MOTION_DOT":0.00002803,"MEAN_MOTION_DDOT":0},{"OBJECT_NAME":"ICEYE-X33","OBJECT_ID":"2024-149CJ","EPOCH":"2026-07-07T16:52:20.127072","CLASSIFICATION_TYPE":"U","MEAN_MOTION":15.00923697,"ECCENTRICITY":0.0001935,"INCLINATION":97.7335,"RA_OF_ASC_NODE":267.7382,"ARG_OF_PERICENTER":75.9542,"MEAN_ANOMALY":284.1897,"EPHEMERIS_TYPE":0,"NORAD_CAT_ID":60548,"ELEMENT_SET_NO":999,"REV_AT_EPOCH":10328,"BSTAR":0.00026424,"MEAN_MOTION_DOT":0.00003306,"MEAN_MOTION_DDOT":0}]}
